[Satellite]
VERSION=1.1
NAME=SL-3 R/B
NICKNAME=SL-3 R/B
TLE1=1 12904U 81103B   19316.87498156 -.00000168  00000-0 -13185-4 0  9996
TLE2=2 12904  81.1773 351.6603 0029062  54.9116 305.4826 15.05722248625034
STATUS=0
